ONEWEB-0063             
1 45448U 20020AA  20227.25001157 -.00060478  00000-0 -62456-2 0  9995
2 45448  87.5745  92.0842 0030896 127.7655 116.4859 14.90228910 21808
ONEWEB-0019             
1 45449U 20020AB  20227.25001157 -.00058965  00000-0 -60905-2 0  9991
2 45449  87.5571  91.9888 0030370 129.7932 221.8556 14.90225609 21752
ONEWEB-0094             
1 45450U 20020AC  20227.25001157 -.00060210  00000-0 -62224-2 0  9995
2 45450  87.5745  92.0757 0029173 132.1039 120.4921 14.90238702 21791
ONEWEB-0087             
1 45451U 20020AD  20227.25001157 -.00059258  00000-0 -62206-2 0  9996
2 45451  87.5669  92.0752 0028349 133.2386 156.3394 14.89624060 21755
ONEWEB-0082             
1 45452U 20020AE  20227.25001157 -.00060951  00000-0 -63068-2 0  9996
2 45452  87.5906  92.0908 0028414 133.2186 353.8110 14.90210128 21796
ONEWEB-0050             
1 45453U 20020AF  20227.25001157 -.00062177  00000-0 -57243-2 0  9997
2 45453  87.5387  92.0825 0027972 129.3950  45.8825 14.94859033 21857
ONEWEB-0034             
1 45454U 20020AG  20227.25001157 -.00058777  00000-0 -61272-2 0  9996
2 45454  87.5750  91.9869 0027564 130.9956 197.4722 14.89918945 21783
ONEWEB-0060             
1 45455U 20020AH  20227.25001157 -.00061836  00000-0 -64178-2 0  9995
2 45455  87.5569  91.9612 0027395 132.9545  21.2721 14.90115056 21749
ONEWEB-0086             
1 45456U 20020AJ  20227.25001157 -.00060617  00000-0 -63321-2 0  9991
2 45456  87.5647  92.0433 0026229 131.3712 105.9233 14.89873528 21745
ONEWEB-0088             
1 45457U 20020AK  20227.25001157 -.00059631  00000-0 -61851-2 0  9992
2 45457  87.5679  92.0845 0026973 132.6478 135.7272 14.90137301 21734
YAOGAN 30 R             
1 45460U 20021A   20227.04907567  .00000167  00000-0  19845-4 0  9990
2 45460  34.9983  80.3486 0005544 273.2550  86.7520 14.89804725 21322
YAOGAN 30 S             
1 45461U 20021B   20227.02700327  .00000154  00000-0  18480-4 0  9994
2 45461  34.9978  80.1625 0002566 190.1491 169.9161 14.89778714 21291
YAOGAN 30 T             
1 45462U 20021C   20227.07664175  .00000151  00000-0  17870-4 0  9999
2 45462  34.9998  78.7040 0007051  46.0256 314.1029 14.90550948 21319
AEHF-6 (USA 298)        
1 45465U 20022B   20226.61198344 -.00000156  00000-0  00000+0 0  9990
2 45465   7.4566 308.7713 0197368 181.3271 312.6551  1.00312515  1596
SOYUZ-MS 16             
1 45476U 20023A   20226.56000264  .00000330  00000-0  14056-4 0  9994
2 45476  51.6462  64.5207 0001647  34.5365 356.4911 15.49160541240911
AC 10 PROBE (FULLER)    
1 45528U 19022M   20226.39326448  .00091111  00000-0  20101-2 0  9998
2 45528  51.6356 115.1197 0006058 141.9946 218.1468 15.43106436 17551
NOOR                    
1 45529U 20024A   20227.09180157  .00005233  00000-0  11266-3 0  9999
2 45529  59.8104  77.4529 0022579  43.0825  94.7156 15.46011127 17609
STARLINK-1329           
1 45531U 20025A   20227.16667824 -.00033027  00000-0 -22582-2 0  9998
2 45531  52.9984 235.4570 0001170  95.5662  47.3379 15.05578540 18007
STARLINK-1338           
1 45532U 20025B   20226.91668981  .00035764  00000-0  24615-2 0  9993
2 45532  53.0056 236.5445 0000368 102.6829  52.5203 15.05577194  1758
STARLINK-1339           
1 45533U 20025C   20226.91668981  .00042589  00000-0  29259-2 0  9996
2 45533  52.9994 236.5767 0001294  95.8596 329.3431 15.05562177  1762
STARLINK-1341           
1 45534U 20025D   20227.25001157 -.00028815  00000-0 -19660-2 0  9994
2 45534  53.0012 235.0762 0001377  84.8486  24.0062 15.05589072 18022
STARLINK-1350           
1 45535U 20025E   20227.16667824 -.00028933  00000-0 -19742-2 0  9996
2 45535  52.9995 235.4590 0001368  87.8676 181.0946 15.05588917 18019
STARLINK-1352           
1 45536U 20025F   20227.16667824 -.00029371  00000-0 -20044-2 0  9991
2 45536  52.9984 235.4587 0001279  89.2055 161.7184 15.05590540 18016
STARLINK-1353           
1 45537U 20025G   20226.73841064  .00001403  00000-0  10004-3 0  9994
2 45537  53.0032 234.8885 0002308 115.3004 244.8225 15.11161330 18574
STARLINK-1362           
1 45538U 20025H   20226.91668981  .00035683  00000-0  24579-2 0  9998
2 45538  52.9972 236.5805 0001142 104.4555 104.7741 15.05548191  1758
STARLINK-1367           
1 45539U 20025J   20226.91668981 -.01006277  00000-0 -50577-1 0  9995
2 45539  52.9868 206.8936 0001240  90.2859 332.0888 15.19717278  1764
STARLINK-1368           
1 45540U 20025K   20226.91668981  .00044612  00000-0  30652-2 0  9992
2 45540  52.9979 236.5792 0001087  83.5923 233.6957 15.05537101  1757
STARLINK-1369           
1 45541U 20025L   20226.91668981  .00042657  00000-0  29319-2 0  9998
2 45541  52.9989 236.5824 0000617  96.7703 202.4514 15.05544839  1754
STARLINK-1371           
1 45542U 20025M   20227.25001157 -.00028215  00000-0 -19243-2 0  9994
2 45542  53.0026 235.0656 0001279  89.1957  37.5988 15.05593770 18026
STARLINK-1372           
1 45543U 20025N   20226.91668981  .00041279  00000-0  28366-2 0  9990
2 45543  52.9994 236.5776 0001102 108.5654 172.7143 15.05567670  1750
STARLINK-1373           
1 45544U 20025P   20226.91668981  .00034961  00000-0  24082-2 0  9992
2 45544  52.9948 236.5918 0000966  96.5381  94.6295 15.05557006  1750
STARLINK-1374           
1 45545U 20025Q   20226.91668981  .00040918  00000-0  28130-2 0  9990
2 45545  52.9995 236.5751 0000954  86.3343 356.9008 15.05556296  1767
STARLINK-1375           
1 45546U 20025R   20227.25001157 -.00028702  00000-0 -19571-2 0  9993
2 45546  52.9983 235.0810 0001256  82.6438 296.1963 15.05610019 18032
STARLINK-1377           
1 45547U 20025S   20226.91668981  .00002477  00000-0  18908-3 0  9993
2 45547  52.9995 236.5731 0001136  94.6887 312.6088 15.05582018  1763
STARLINK-1378           
1 45548U 20025T   20227.25001157 -.00024406  00000-0 -16615-2 0  9998
2 45548  52.9985 235.0859 0001387  96.0113 174.8452 15.05582326 18026
STARLINK-1379           
1 45549U 20025U   20226.91668981  .00038059  00000-0  26183-2 0  9993
2 45549  52.9979 236.5779 0000875  86.1400 159.0205 15.05564328  1752
STARLINK-1390           
1 45550U 20025V   20226.91668981  .00034942  00000-0  24057-2 0  9990
2 45550  52.9958 236.5976 0001299 105.2213  67.9927 15.05575793  1752
STARLINK-1294           
1 45551U 20025W   20226.91668981 -.00023983  00000-0 -16319-2 0  9998
2 45551  52.9859 216.6457 0001481  75.0031 118.4342 15.05591038  1754
STARLINK-1322           
1 45552U 20025X   20226.91668981  .00028170  00000-0  19463-2 0  9993
2 45552  52.9953 216.6036 0001483  71.6315 139.8019 15.05551181  1755
STARLINK-1323           
1 45553U 20025Y   20226.91668981  .00029507  00000-0  20362-2 0  9999
2 45553  53.0009 216.5687 0001580  75.8441  63.5429 15.05573058  1750
STARLINK-1325           
1 45554U 20025Z   20226.91668981  .00028186  00000-0  19465-2 0  9994
2 45554  52.9853 216.6525 0001426  73.7684 101.6093 15.05568209  1756
STARLINK-1327           
1 45555U 20025AA  20226.91668981  .00036827  00000-0  25347-2 0  9992
2 45555  53.0002 216.5691 0001449  80.6099 310.7276 15.05562495  1768
STARLINK-1334           
1 45556U 20025AB  20226.91668981  .00028686  00000-0  19814-2 0  9999
2 45556  53.0068 216.5384 0001250  72.9831  84.4166 15.05553068  1756
STARLINK-1336           
1 45557U 20025AC  20226.91668981  .00030724  00000-0  21185-2 0  9990
2 45557  53.0012 216.5690 0001629  76.6479  44.7475 15.05582356  1759
STARLINK-1342           
1 45558U 20025AD  20226.91668981  .00032919  00000-0  22686-2 0  9996
2 45558  52.9997 216.5681 0001704  67.3503 215.9839 15.05569071  1754
STARLINK-1344           
1 45559U 20025AE  20226.91668981  .00031966  00000-0  22046-2 0  9998
2 45559  52.9995 216.5690 0001584  71.6581  31.6824 15.05555430  1754
STARLINK-1346           
1 45560U 20025AF  20226.91668981 -.01061881  00000-0 -38891-1 0  9996
2 45560  53.0004 207.3836 0001283  59.7521 324.3403 15.30352842  1773
STARLINK-1348           
1 45561U 20025AG  20226.91668981  .00028546  00000-0  36754-3 0  9993
2 45561  52.9966 204.8042 0008640 333.2223 208.7133 15.58803348  1792
STARLINK-1354           
1 45562U 20025AH  20226.91668981 -.00019875  00000-0 -13479-2 0  9999
2 45562  52.9995 216.5683 0001386  96.4997 330.8652 15.05602550  1766
STARLINK-1355           
1 45563U 20025AJ  20226.91668981  .00031915  00000-0  23985-2 0  9990
2 45563  53.0011 215.6765 0001555  94.9766   3.8242 15.02324619  1759
STARLINK-1356           
1 45564U 20025AK  20226.91668981  .00037320  00000-0  25670-2 0  9990
2 45564  53.0020 216.5692 0001436  83.2055 290.1416 15.05579846  1761
STARLINK-1357           
1 45565U 20025AL  20226.91668981  .00036323  00000-0  25006-2 0  9996
2 45565  52.9992 216.5669 0001356  80.1732 329.1785 15.05560498  1766
STARLINK-1358           
1 45566U 20025AM  20227.25001157 -.00016880  00000-0 -11417-2 0  9990
2 45566  53.0015 215.0734 0001494  64.8353 280.1766 15.05591177 18292
STARLINK-1361           
1 45567U 20025AN  20227.16667824 -.00031252  00000-0 -21353-2 0  9990
2 45567  52.9996 215.4554 0001523  64.3609  98.7281 15.05577790 18284
STARLINK-1363           
1 45568U 20025AP  20227.16667824 -.00028229  00000-0 -19248-2 0  9991
2 45568  53.0008 215.4478 0001772  68.1770 148.8300 15.05601085 18287
STARLINK-1366           
1 45569U 20025AQ  20226.91668981  .00028884  00000-0  19939-2 0  9991
2 45569  53.0000 216.5785 0001304  67.5916 161.7732 15.05570556  1754
STARLINK-1376           
1 45570U 20025AR  20226.91668981  .00031214  00000-0  21531-2 0  9995
2 45570  53.0002 216.5725 0001634  70.9712 194.3805 15.05559999  1751
STARLINK-1261           
1 45571U 20025AS  20226.91668981 -.01034226  00000-0 -37818-1 0  9999
2 45571  53.0003 207.3429 0001336  64.1773 337.9677 15.30329816  1767
STARLINK-1320           
1 45572U 20025AT  20227.16667824 -.01055512  00000-0 -52177-1 0  9999
2 45572  52.9989 206.0774 0001321  65.6227 238.2361 15.20426706 18410
